CCSDS_OMM_VERS = 2.0
CREATION_DATE  = 
ORIGINATOR     = 

OBJECT_NAME    = E-KAGAKU-1
OBJECT_ID      = 1998-067XQ
CENTER_NAME    = EARTH
REF_FRAME      = TEME
TIME_SYSTEM    = UTC
MEAN_ELEMENT_THEORY = SGP/SGP4

EPOCH          = 2026-03-12T07:14:55.759200
MEAN_MOTION    = 15.81386675
ECCENTRICITY   = .00057924
INCLINATION    = 51.6239
RA_OF_ASC_NODE = 43.8096
ARG_OF_PERICENTER = 91.6608
MEAN_ANOMALY   = 268.5057

EPHEMERIS_TYPE = 0
CLASSIFICATION_TYPE = U
NORAD_CAT_ID   = 65943
ELEMENT_SET_NO = 999
REV_AT_EPOCH   = 2391
BSTAR          = .11646083E-2
MEAN_MOTION_DOT = .242002E-2
MEAN_MOTION_DDOT = 0

CCSDS_OMM_VERS = 2.0
CREATION_DATE  = 
ORIGINATOR     = 

OBJECT_NAME    = HRC MONOBLOCK CAMERA
OBJECT_ID      = 1998-067XR
CENTER_NAME    = EARTH
REF_FRAME      = TEME
TIME_SYSTEM    = UTC
MEAN_ELEMENT_THEORY = SGP/SGP4

EPOCH          = 2026-03-12T04:40:41.517408
MEAN_MOTION    = 15.62501193
ECCENTRICITY   = .00037616
INCLINATION    = 51.6281
RA_OF_ASC_NODE = 52.8869
ARG_OF_PERICENTER = 103.4656
MEAN_ANOMALY   = 256.6757

EPHEMERIS_TYPE = 0
CLASSIFICATION_TYPE = U
NORAD_CAT_ID   = 66052
ELEMENT_SET_NO = 999
REV_AT_EPOCH   = 2278
BSTAR          = .62435622E-3
MEAN_MOTION_DOT = .56559E-3
MEAN_MOTION_DDOT = 0

CCSDS_OMM_VERS = 2.0
CREATION_DATE  = 
ORIGINATOR     = 

OBJECT_NAME    = HTV-X1
OBJECT_ID      = 2025-241A
CENTER_NAME    = EARTH
REF_FRAME      = TEME
TIME_SYSTEM    = UTC
MEAN_ELEMENT_THEORY = SGP/SGP4

EPOCH          = 2026-03-12T07:26:18.148128
MEAN_MOTION    = 15.22858163
ECCENTRICITY   = .00063106
INCLINATION    = 51.6349
RA_OF_ASC_NODE = 60.3824
ARG_OF_PERICENTER = 180.1494
MEAN_ANOMALY   = 179.9483

EPHEMERIS_TYPE = 0
CLASSIFICATION_TYPE = U
NORAD_CAT_ID   = 66174
ELEMENT_SET_NO = 999
REV_AT_EPOCH   = 2135
BSTAR          = .39665725E-3
MEAN_MOTION_DOT = .9098E-4
MEAN_MOTION_DDOT = 0

CCSDS_OMM_VERS = 2.0
CREATION_DATE  = 
ORIGINATOR     = 

OBJECT_NAME    = SZ-21 MODULE
OBJECT_ID      = 2025-246C
CENTER_NAME    = EARTH
REF_FRAME      = TEME
TIME_SYSTEM    = UTC
MEAN_ELEMENT_THEORY = SGP/SGP4

EPOCH          = 2026-03-11T15:57:45.086688
MEAN_MOTION    = 15.68721611
ECCENTRICITY   = .00012302
INCLINATION    = 41.4734
RA_OF_ASC_NODE = 191.1990
ARG_OF_PERICENTER = 305.0978
MEAN_ANOMALY   = 54.9749

EPHEMERIS_TYPE = 0
CLASSIFICATION_TYPE = U
NORAD_CAT_ID   = 66515
ELEMENT_SET_NO = 999
REV_AT_EPOCH   = 1838
BSTAR          = .36182576E-3
MEAN_MOTION_DOT = .42405E-3
MEAN_MOTION_DDOT = 0

CCSDS_OMM_VERS = 2.0
CREATION_DATE  = 
ORIGINATOR     = 

OBJECT_NAME    = SHENZHOU-22
OBJECT_ID      = 2025-272A
CENTER_NAME    = EARTH
REF_FRAME      = TEME
TIME_SYSTEM    = UTC
MEAN_ELEMENT_THEORY = SGP/SGP4

EPOCH          = 2026-03-12T05:04:02.976384
MEAN_MOTION    = 15.60804947
ECCENTRICITY   = .00067688
INCLINATION    = 41.4662
RA_OF_ASC_NODE = 192.8178
ARG_OF_PERICENTER = 286.7169
MEAN_ANOMALY   = 73.2927

EPHEMERIS_TYPE = 0
CLASSIFICATION_TYPE = U
NORAD_CAT_ID   = 66645
ELEMENT_SET_NO = 999
REV_AT_EPOCH   = 26752
BSTAR          = .31716932E-3
MEAN_MOTION_DOT = .26987E-3
MEAN_MOTION_DDOT = 0

CCSDS_OMM_VERS = 2.0
CREATION_DATE  = 
ORIGINATOR     = 

OBJECT_NAME    = SOYUZ-MS 28
OBJECT_ID      = 2025-275A
CENTER_NAME    = EARTH
REF_FRAME      = TEME
TIME_SYSTEM    = UTC
MEAN_ELEMENT_THEORY = SGP/SGP4

EPOCH          = 2026-03-12T03:49:12.417600
MEAN_MOTION    = 15.48595269
ECCENTRICITY   = .00079841
INCLINATION    = 51.6325
RA_OF_ASC_NODE = 60.1463
ARG_OF_PERICENTER = 183.4136
MEAN_ANOMALY   = 176.6799

EPHEMERIS_TYPE = 0
CLASSIFICATION_TYPE = U
NORAD_CAT_ID   = 66664
ELEMENT_SET_NO = 999
REV_AT_EPOCH   = 55452
BSTAR          = .17667487E-3
MEAN_MOTION_DOT = .9166E-4
MEAN_MOTION_DDOT = 0

CCSDS_OMM_VERS = 2.0
CREATION_DATE  = 
ORIGINATOR     = 

OBJECT_NAME    = DUPLEX
OBJECT_ID      = 1998-067XS
CENTER_NAME    = EARTH
REF_FRAME      = TEME
TIME_SYSTEM    = UTC
MEAN_ELEMENT_THEORY = SGP/SGP4

EPOCH          = 2026-03-12T05:15:07.769952
MEAN_MOTION    = 15.56413150
ECCENTRICITY   = .00025542
INCLINATION    = 51.6293
RA_OF_ASC_NODE = 56.7987
ARG_OF_PERICENTER = 123.1889
MEAN_ANOMALY   = 236.9348

EPHEMERIS_TYPE = 0
CLASSIFICATION_TYPE = U
NORAD_CAT_ID   = 66906
ELEMENT_SET_NO = 999
REV_AT_EPOCH   = 1552
BSTAR          = .52837729E-3
MEAN_MOTION_DOT = .37736E-3
MEAN_MOTION_DDOT = 0

CCSDS_OMM_VERS = 2.0
CREATION_DATE  = 
ORIGINATOR     = 

OBJECT_NAME    = ISS OBJECT XT
OBJECT_ID      = 1998-067XT
CENTER_NAME    = EARTH
REF_FRAME      = TEME
TIME_SYSTEM    = UTC
MEAN_ELEMENT_THEORY = SGP/SGP4

EPOCH          = 2026-03-12T04:38:03.406272
MEAN_MOTION    = 15.70120533
ECCENTRICITY   = .00047038
INCLINATION    = 51.6250
RA_OF_ASC_NODE = 52.8597
ARG_OF_PERICENTER = 94.7778
MEAN_ANOMALY   = 265.3756

EPHEMERIS_TYPE = 0
CLASSIFICATION_TYPE = U
NORAD_CAT_ID   = 66907
ELEMENT_SET_NO = 999
REV_AT_EPOCH   = 1557
BSTAR          = .13956889E-2
MEAN_MOTION_DOT = .175431E-2
MEAN_MOTION_DDOT = 0

CCSDS_OMM_VERS = 2.0
CREATION_DATE  = 
ORIGINATOR     = 

OBJECT_NAME    = ISS OBJECT XU
OBJECT_ID      = 1998-067XU
CENTER_NAME    = EARTH
REF_FRAME      = TEME
TIME_SYSTEM    = UTC
MEAN_ELEMENT_THEORY = SGP/SGP4

EPOCH          = 2026-03-12T04:35:10.207968
MEAN_MOTION    = 15.70253790
ECCENTRICITY   = .00048498
INCLINATION    = 51.6251
RA_OF_ASC_NODE = 52.8423
ARG_OF_PERICENTER = 95.5022
MEAN_ANOMALY   = 264.6529

EPHEMERIS_TYPE = 0
CLASSIFICATION_TYPE = U
NORAD_CAT_ID   = 66908
ELEMENT_SET_NO = 999
REV_AT_EPOCH   = 1557
BSTAR          = .13761345E-2
MEAN_MOTION_DOT = .173902E-2
MEAN_MOTION_DDOT = 0

CCSDS_OMM_VERS = 2.0
CREATION_DATE  = 
ORIGINATOR     = 

OBJECT_NAME    = SILVERSAT
OBJECT_ID      = 1998-067XV
CENTER_NAME    = EARTH
REF_FRAME      = TEME
TIME_SYSTEM    = UTC
MEAN_ELEMENT_THEORY = SGP/SGP4

EPOCH          = 2026-03-12T04:30:05.692032
MEAN_MOTION    = 15.73352402
ECCENTRICITY   = .00054282
INCLINATION    = 51.6249
RA_OF_ASC_NODE = 52.0679
ARG_OF_PERICENTER = 93.6368
MEAN_ANOMALY   = 266.5252

EPHEMERIS_TYPE = 0
CLASSIFICATION_TYPE = U
NORAD_CAT_ID   = 66909
ELEMENT_SET_NO = 999
REV_AT_EPOCH   = 1558
BSTAR          = .15879127E-2
MEAN_MOTION_DOT = .230471E-2
MEAN_MOTION_DDOT = 0

CCSDS_OMM_VERS = 2.0
CREATION_DATE  = 
ORIGINATOR     = 

OBJECT_NAME    = ISS OBJECT XW
OBJECT_ID      = 1998-067XW
CENTER_NAME    = EARTH
REF_FRAME      = TEME
TIME_SYSTEM    = UTC
MEAN_ELEMENT_THEORY = SGP/SGP4

EPOCH          = 2026-03-12T07:35:39.532992
MEAN_MOTION    = 15.69426524
ECCENTRICITY   = .00053484
INCLINATION    = 51.6247
RA_OF_ASC_NODE = 52.1756
ARG_OF_PERICENTER = 102.3551
MEAN_ANOMALY   = 257.8045

EPHEMERIS_TYPE = 0
CLASSIFICATION_TYPE = U
NORAD_CAT_ID   = 66910
ELEMENT_SET_NO = 999
REV_AT_EPOCH   = 1559
BSTAR          = .13156676E-2
MEAN_MOTION_DOT = .160368E-2
MEAN_MOTION_DDOT = 0

CCSDS_OMM_VERS = 2.0
CREATION_DATE  = 
ORIGINATOR     = 

OBJECT_NAME    = ISS OBJECT XX
OBJECT_ID      = 1998-067XX
CENTER_NAME    = EARTH
REF_FRAME      = TEME
TIME_SYSTEM    = UTC
MEAN_ELEMENT_THEORY = SGP/SGP4

EPOCH          = 2026-03-12T04:18:18.825984
MEAN_MOTION    = 15.76798851
ECCENTRICITY   = .00069979
INCLINATION    = 51.6228
RA_OF_ASC_NODE = 51.2413
ARG_OF_PERICENTER = 99.7488
MEAN_ANOMALY   = 260.4303

EPHEMERIS_TYPE = 0
CLASSIFICATION_TYPE = U
NORAD_CAT_ID   = 66911
ELEMENT_SET_NO = 999
REV_AT_EPOCH   = 1558
BSTAR          = .16961278E-2
MEAN_MOTION_DOT = .288232E-2
MEAN_MOTION_DDOT = 0

